STARLINK-1434           
1 45712U 20035BH  26068.24137979  .00054112  00000+0  20295-2 0  9995
2 45712  53.0547  22.1128 0005343  88.0400 272.1210 15.26724568319325
STARLINK-31198          
1 58867U 24019Q   26068.48751045  .00000092  00000+0  12875-4 0  9993
2 58867  43.0012 249.8639 0001199 269.7146  90.3568 15.27578083119033
